#dP2021  4 29  0  0  0.00000000      96 __u+U ITR00 FIT  IAC
## 2155 345600.00000000   900.00000000 59333 0.0000000000000
+  125   C01C02C03C04C05C06C07C08C09C10C11C12C13C14C16C19C20
+        C21C22C23C24C25C26C27C28C29C30C32C33C34C35C36C37C38
+        C39C40C41C42C43C44C45C46C60E01E02E03E04E05E07E08E09
+        E11E12E13E14E15E18E19E21E24E25E26E27E30E31E33E36G01
+        G02G03G04G05G06G07G08G09G10G12G13G14G15G16G17G18G19
+        G20G21G22G23G24G25G26G27G28G29G30G31G32J01J02J03R01
+        R02R03R04R05R06R07R08R09R10R11R12R13R14R15R16R17R18
+        R19R20R21R22R23R24  0  0  0  0  0  0  0  0  0  0  0
++        13 13 13 13 13 10  9 10  9  9  9  9  9 10 10  8  8
++         8  8  8  8  8  8  8  8  8  8  8  9  8  8  8  8 11
++        10 10  9  9  8  9  9  8 13  5  4  5  5  5  4  5  5
++         4  4  5  4  5  5  4  5  6  5  5  5  5  6  5  5  4
++         4  4  4  4  4  4  4  4  4  4  4  4  4  4  4  4  4
++         4  4  4  4  4  4  4  4  4  4  4  4  4  9  9  9  8
++         6  6  6  6 14  6  6  6 14  8  6  7  6  6  7  6  6
++         8  7  6  8 13  6  0  0  0  0  0  0  0  0  0  0  0
%c M  cc GPS ccc cccc cccc cccc cccc ccccc ccccc ccccc ccccc
%c cc cc ccc ccc cccc cccc cccc cccc ccccc ccccc ccccc ccccc
%f  0.0000000  0.000000000  0.00000000000  0.000000000000000
%f  0.0000000  0.000000000  0.00000000000  0.000000000000000
%i    0    0    0    0      0      0      0      0         0
%i    0    0    0    0      0      0      0      0         0
/* INFORMATION & ANALYSIS CENTER (IAC)            RAPID DATA
/* S/V CLOCKS ARE ALIGNED TO GNSS TIME                      
/* G:C1WC2W R:C1PC2P E:C1XC5X C:C2IC6I J:C1CC2S             
/* PCV:IGS14_2148 OL/AL:FES2004  NONE     YN ORB:CoN CLK:CoN
*  2021 04 29 16 15  0.00000000
PC01 -34342.226651  24436.539870   -243.937043   -514.409579
PC02   4438.263953  41948.904130   1324.865659    719.421030
PC03 -14865.372580  39483.339455    638.155297   -354.609381
PC04 -39608.014377  14448.740241   -358.296457   -107.391902
PC05  21854.757039  36076.024488   1049.566966   -162.914149
PC06  -9602.188466  34818.455817  22618.650034    329.969402
PC07 -18086.613876  21755.402697 -31122.516775   -170.620713
PC08 -24725.369498  32077.357741  11141.466052   -890.592395
PC09      5.288732  41472.077251   9098.251587    560.303762
PC10   -877.371643  26672.775603 -32403.267935    -49.596971
PC11  -4260.133133 -27385.219343  -3365.354658    312.145556
PC12   7040.811305 -23285.590351  13715.041387    905.632119
PC13 -13369.529255  33049.829061  22421.245948    241.084062
PC14 -10054.335421 -18478.733445 -18333.859867    596.808519
PC16  -6389.078629  36753.383882  19975.637770   -809.705283
PC19  18955.345634  17055.663163  11346.075727    816.507824
PC20   1183.569577  17185.475762  21970.106579   -939.772610
PC21  18166.239735  -7009.743436 -19956.207141   -945.823146
PC22  26252.617504   7041.655885  -6238.569341   -961.519839
PC23 -22697.183087   1936.533015  16122.612652   -896.446174
PC24  10116.611159 -20815.325854  15600.240520   -831.028127
PC25  -9937.767158 -12790.929946  22718.714294   -924.843607
PC26  22193.979344 -16941.713966    450.423877    914.124819
PC27 -12351.508433  15494.172717 -19679.158168    523.468497
PC28 -15883.581962  -5500.718170 -22276.084452    -80.410335
PC29  10976.943994  22788.465616  11785.218558    385.484760
PC30   -910.011263  27248.589127  -6024.266879    464.028558
PC32 -18147.681522   7167.523051  19977.057208   -940.547287
PC33 -19042.696043 -16966.833837 -11336.284308   -942.056887
PC34    494.450245 -27374.294430   5311.990596   -684.804011
PC35  16117.308985   5363.422005  22139.177023   -304.204259
PC36   9305.528513  13241.895771 -22710.690460   -728.649511
PC37 -22900.958517  15925.937016    413.055459   -904.453658
PC38 -20724.955837  33690.073212  14485.860059    145.460721
PC39  -1787.035648  38324.993603  17656.107868     30.714747
PC40  -5183.907078  21878.902058 -35638.775920    156.006896
PC41 -26314.154988  -7108.191294   6031.233351   -946.035994
PC42   -445.225418 -17009.291105 -22072.358862   -919.178139
PC43 -10687.891400 -23133.333556 -11352.284059   -707.636356
PC44  12019.806554 -15672.991699  19687.880644    162.559757
PC45  22696.230588  -2158.228463 -16103.409868    426.850444
PC46  -9164.131588  20660.518790 -16341.683960    293.857414
PC60   7276.691203  41528.862994   -822.327609      0.668665
PE01  29205.427418  -1025.712576  -4732.024456  -1097.269558
PE02 -29209.102954   1111.686241   4607.690307    215.610838
PE03 -22126.751994  -6852.733335  18441.012201   -425.487710
PE04  12004.188955 -12316.343253 -24079.906739   -760.393329
PE05 -19397.789924 -22281.899965   1882.058220   -284.934690
PE07   5374.479333  24563.686169  15620.347581   -531.639138
PE08 -11600.693609  12560.261623  24168.418884   6010.029299
PE09  -5748.413592 -24533.622114 -15535.024797   5684.572326
PE11   5096.468542 -27988.225487  -8144.298525   6039.745706
PE12  16364.804766 -21913.185816  11289.344399   5235.451442
PE13  -5343.743650  28073.212710   7742.825389    415.705100
PE14  16603.988775   8932.766865  14099.520148  -1413.807862
PE15 -16246.822623  22029.781079 -11274.121780    816.921484
PE18 -22707.247348  -6234.610891 -22470.539006  -1547.096539
PE19  22432.350774   9090.946984 -17029.221944    264.448572
PE21  18994.578912  10791.936129 -19979.424857   -662.087639
PE24   3605.170015 -16925.614939  24002.630631   -873.316817
PE25 -18812.610653 -10893.718653  20089.678343   -532.345032
PE26   9253.728106  16976.527309  22416.846119   1868.267106
PE27  -2594.018193  16860.313089 -24189.443303    -21.666987
PE30 -23231.955846  12503.696498 -13416.960467   2985.665352
PE31  22524.075610 -12983.464841  14158.643747   -480.651782
PE33  17567.458031  -3007.951896  23633.099202   -468.058044
PE36  -8697.267462 -17563.884479 -22175.399493   -200.319217
PG01  13956.399593 -22360.816471   -947.007635    703.123989
PG02 -17766.642612   6371.036223 -18054.304539   -599.972968
PG03  12504.011885 -12885.838792 -19614.270377   -150.323238
PG04   5059.251682 -18812.201138 -18021.672052   -194.155116
PG05 -24923.217556   5181.147530   7758.561214    -40.490428
PG06 -12902.668162  -7062.653840 -22058.018376     11.192970
PG07   3506.680880 -22650.541040  13330.590761    136.576617
PG08  11188.720490 -10608.367160  21584.333884    -19.320755
PG09  -4708.348022 -24091.127820 -10176.154294   -342.286082
PG10  17895.256674  11803.778806  15968.196905   -111.912325
PG12 -15663.878499  10896.598473 -18668.351948    -34.358162
PG13 -15416.068924    829.944780  21494.624367    125.868823
PG14 -16691.679681 -12946.530924  16106.358945     91.734092
PG15 -10412.172619  12291.631939  20714.117034   -152.828290
PG16  26386.748882    625.473417   4447.935347   -317.325140
PG17 -13387.997665 -22311.512582  -4892.405349    434.357196
PG18  -1068.757230  21181.223148  15941.615389    351.294111
PG19 -16134.296915 -16440.952018 -13603.986852     -6.524090
PG20 -12130.227487  14692.222623  18335.718709    522.684494
PG21  16909.762820 -18621.786273   8433.302833    114.578473
PG22  20773.627040 -10332.786937 -12559.703707   -626.430597
PG23   6311.692420  14811.147410  21112.668212    110.460980
PG24 -15388.462732  20810.933689   4694.669334     44.786158
PG25  -1433.572153  15271.762481 -21941.426645    127.851227
PG26  25881.512097   3979.015722  -5296.231219     78.733456
PG27  16665.546781   2088.558058  20492.823236   -121.396227
PG28 -19550.503750 -12166.316938  13621.948218    579.202401
PG29   3059.687418  24365.297640 -10111.465506   -338.488932
PG30  -7776.582747 -15162.228486  20378.692927   -419.464392
PG31  15343.834504   4272.734121 -21397.133306   -114.423972
PG32  15995.386965  20143.076460  -6861.297302     21.873349
PJ01 -27329.305798  20653.058409  29612.539072   -371.849182
PJ02 -34424.322528  18955.241487 -10674.402790      6.735397
PJ03 -20395.716254  28133.739896 -19295.005917     -4.356832
PR01  10845.038110  16569.009345  16076.163902     78.651370
PR02  21576.395834  13163.479245  -3615.539239    476.706367
PR03  17478.595918   1463.058125 -18494.231890     35.052699
PR04   3417.772267 -10712.790374 -22862.530834     84.562845
PR05 -12384.979782 -16996.898742 -14404.121104     70.833481
PR06 -22034.580491 -11963.340854   4631.314335    197.074314
PR07 -17022.109332   -871.221941  19003.080400    -42.514286
PR08  -3426.094022  10888.178779  22873.110510    -58.775111
PR09 -18151.624379  -1015.605858  17941.034914     -9.626772
PR10 -23384.636836   9377.495844   3731.518382 999999.999999
PR11 -15553.965460  14821.360552 -13750.477411     -1.265444
PR12   1842.968033  11158.755816 -22838.996349    224.830084
PR13  17575.185524   1244.618108 -18463.578128    -54.081119
PR14  23426.427335  -9718.202624  -2646.964394     63.695230
PR15  15355.220302 -14687.300201  14129.693516    104.092871
PR16  -3062.951834 -10883.126523  22847.346165    -14.432018
PR17  10617.398811  -8481.725856  21599.167035    419.865086
PR18   6706.252716 -22418.282237  10095.220292     74.792514
PR19    282.258229 -24772.584335  -6074.560768   -141.715812
PR20  -8082.925798 -11529.582043 -21252.675149    -48.208752
PR21 -10471.838928   9660.103482 -21156.234120   -205.294501
PR22  -6407.577995  23023.397905  -9078.557380   -110.244573
PR23   3440.960000  21913.008499  12592.032977    381.717068
PR24   8900.819425  10766.044117  21354.722478     40.722957
EOF
